[{"OBJECT_NAME":"STARLINK-5428","OBJECT_ID":"2022-175AU","EPOCH":"2026-03-09T07:13:37.041024","MEAN_MOTION":15.08841997,"ECCENTRICITY":0.00014685,"INCLINATION":53.2185,"RA_OF_ASC_NODE":35.6382,"ARG_OF_PERICENTER":95.1963,"MEAN_ANOMALY":264.9197,"EPHEMERIS_TYPE":0,"CLASSIFICATION_TYPE":"U","NORAD_CAT_ID":54800,"ELEMENT_SET_NO":999,"REV_AT_EPOCH":18000,"BSTAR":0.0001915204,"MEAN_MOTION_DOT":2.762e-5,"MEAN_MOTION_DDOT":0},{"OBJECT_NAME":"FREGAT DEB (TANK)","OBJECT_ID":"2011-001D","EPOCH":"2026-03-09T16:31:00.329664","MEAN_MOTION":13.083899,"ECCENTRICITY":0.12362877,"INCLINATION":50.3015,"RA_OF_ASC_NODE":163.3878,"ARG_OF_PERICENTER":81.6211,"MEAN_ANOMALY":292.2577,"EPHEMERIS_TYPE":0,"CLASSIFICATION_TYPE":"U","NORAD_CAT_ID":37347,"ELEMENT_SET_NO":999,"REV_AT_EPOCH":64289,"BSTAR":0.0007990264,"MEAN_MOTION_DOT":0.00029702,"MEAN_MOTION_DDOT":6.423516e-6}]
